[
  {
    "OBJECT_NAME": "STARLINK-2751",
    "OBJECT_ID": "21044AZ",
    "EPOCH": "2025-11-11T05:14:06.469152",
    "MEAN_MOTION": 15.0640701,
    "ECCENTRICITY": 0.0001612,
    "INCLINATION": 53.0547,
    "RA_OF_ASC_NODE": 243.5056,
    "ARG_OF_PERICENTER": 109.8882,
    "MEAN_ANOMALY": 250.2281,
    "EPHEMERIS_TYPE": 0,
    "CLASSIFICATION_TYPE": "U",
    "NORAD_CAT_ID": 48685,
    "ELEMENT_SET_NO": 999,
    "REV_AT_EPOCH": 24655,
    "BSTAR": 5.681000000000001e-05,
    "MEAN_MOTION_DOT": 5.65e-06,
    "MEAN_MOTION_DDOT": 0.0,
    "TLE_LINE1": "1 48685U 21044AZ  25315.21813043  .00000565  00000+0  56810-4 0  9999",
    "TLE_LINE2": "2 48685  53.0547 243.5056 0001612 109.8882 250.2281 15.06407010246554",
    "COMMENT": "Grouped by shell and plane from TLE"
  },
  {
    "OBJECT_NAME": "STARLINK-2629",
    "OBJECT_ID": "21044BA",
    "EPOCH": "2025-11-11T05:05:32.011584",
    "MEAN_MOTION": 15.06399539,
    "ECCENTRICITY": 0.000163,
    "INCLINATION": 53.0536,
    "RA_OF_ASC_NODE": 248.7662,
    "ARG_OF_PERICENTER": 105.5969,
    "MEAN_ANOMALY": 254.52,
    "EPHEMERIS_TYPE": 0,
    "CLASSIFICATION_TYPE": "U",
    "NORAD_CAT_ID": 48686,
    "ELEMENT_SET_NO": 999,
    "REV_AT_EPOCH": 24647,
    "BSTAR": 0.00029116,
    "MEAN_MOTION_DOT": 4.058e-05,
    "MEAN_MOTION_DDOT": 0.0,
    "TLE_LINE1": "1 48686U 21044BA  25315.21217606  .00004058  00000+0  29116-3 0  9992",
    "TLE_LINE2": "2 48686  53.0536 248.7662 0001630 105.5969 254.5200 15.06399539246477",
    "COMMENT": "Grouped by shell and plane from TLE"
  },
  {
    "OBJECT_NAME": "STARLINK-2750",
    "OBJECT_ID": "21044BF",
    "EPOCH": "2025-11-11T05:47:56.790528",
    "MEAN_MOTION": 15.06401928,
    "ECCENTRICITY": 0.0001337,
    "INCLINATION": 53.055,
    "RA_OF_ASC_NODE": 248.3503,
    "ARG_OF_PERICENTER": 94.0897,
    "MEAN_ANOMALY": 266.0245,
    "EPHEMERIS_TYPE": 0,
    "CLASSIFICATION_TYPE": "U",
    "NORAD_CAT_ID": 48691,
    "ELEMENT_SET_NO": 999,
    "REV_AT_EPOCH": 24648,
    "BSTAR": 0.00039606000000000005,
    "MEAN_MOTION_DOT": 5.623e-05,
    "MEAN_MOTION_DDOT": 0.0,
    "TLE_LINE1": "1 48691U 21044BF  25315.24162952  .00005623  00000+0  39606-3 0  9998",
    "TLE_LINE2": "2 48691  53.0550 248.3503 0001337  94.0897 266.0245 15.06401928246489",
    "COMMENT": "Grouped by shell and plane from TLE"
  },
  {
    "OBJECT_NAME": "STARLINK-2752",
    "OBJECT_ID": "21044BG",
    "EPOCH": "2025-11-11T05:26:43.626048",
    "MEAN_MOTION": 15.06394753,
    "ECCENTRICITY": 0.000136,
    "INCLINATION": 53.0557,
    "RA_OF_ASC_NODE": 248.5435,
    "ARG_OF_PERICENTER": 83.2574,
    "MEAN_ANOMALY": 276.857,
    "EPHEMERIS_TYPE": 0,
    "CLASSIFICATION_TYPE": "U",
    "NORAD_CAT_ID": 48692,
    "ELEMENT_SET_NO": 999,
    "REV_AT_EPOCH": 24648,
    "BSTAR": 0.00016849,
    "MEAN_MOTION_DOT": 2.229e-05,
    "MEAN_MOTION_DDOT": 0.0,
    "TLE_LINE1": "1 48692U 21044BG  25315.22689382  .00002229  00000+0  16849-3 0  9991",
    "TLE_LINE2": "2 48692  53.0557 248.5435 0001360  83.2574 276.8570 15.06394753246488",
    "COMMENT": "Grouped by shell and plane from TLE"
  },
  {
    "OBJECT_NAME": "STARLINK-3678",
    "OBJECT_ID": "22029AK",
    "EPOCH": "2025-11-11T04:44:14.912448",
    "MEAN_MOTION": 15.08849647,
    "ECCENTRICITY": 0.0001457,
    "INCLINATION": 53.2158,
    "RA_OF_ASC_NODE": 241.0508,
    "ARG_OF_PERICENTER": 86.5131,
    "MEAN_ANOMALY": 273.6027,
    "EPHEMERIS_TYPE": 0,
    "CLASSIFICATION_TYPE": "U",
    "NORAD_CAT_ID": 52121,
    "ELEMENT_SET_NO": 999,
    "REV_AT_EPOCH": 20303,
    "BSTAR": 0.00015552,
    "MEAN_MOTION_DOT": 2.189e-05,
    "MEAN_MOTION_DDOT": 0.0,
    "TLE_LINE1": "1 52121U 22029AK  25315.19739482  .00002189  00000+0  15552-3 0  9995",
    "TLE_LINE2": "2 52121  53.2158 241.0508 0001457  86.5131 273.6027 15.08849647203035",
    "COMMENT": "Grouped by shell and plane from TLE"
  },
  {
    "OBJECT_NAME": "STARLINK-3725",
    "OBJECT_ID": "22029AM",
    "EPOCH": "2025-11-11T05:43:53.123520",
    "MEAN_MOTION": 15.0885635,
    "ECCENTRICITY": 0.0001356,
    "INCLINATION": 53.2173,
    "RA_OF_ASC_NODE": 240.689,
    "ARG_OF_PERICENTER": 92.2343,
    "MEAN_ANOMALY": 267.8804,
    "EPHEMERIS_TYPE": 0,
    "CLASSIFICATION_TYPE": "U",
    "NORAD_CAT_ID": 52123,
    "ELEMENT_SET_NO": 999,
    "REV_AT_EPOCH": 20305,
    "BSTAR": 0.0,
    "MEAN_MOTION_DOT": -8.46e-06,
    "MEAN_MOTION_DDOT": 0.0,
    "TLE_LINE1": "1 52123U 22029AM  25315.23880930 -.00000846  00000+0 -35025-4 0  9995",
    "TLE_LINE2": "2 52123  53.2173 240.6890 0001356  92.2343 267.8804 15.08856350203059",
    "COMMENT": "Grouped by shell and plane from TLE"
  },
  {
    "OBJECT_NAME": "STARLINK-3727",
    "OBJECT_ID": "22029AP",
    "EPOCH": "2025-11-11T04:28:22.414656",
    "MEAN_MOTION": 15.08840996,
    "ECCENTRICITY": 0.0001363,
    "INCLINATION": 53.2168,
    "RA_OF_ASC_NODE": 241.1002,
    "ARG_OF_PERICENTER": 90.4278,
    "MEAN_ANOMALY": 269.687,
    "EPHEMERIS_TYPE": 0,
    "CLASSIFICATION_TYPE": "U",
    "NORAD_CAT_ID": 52125,
    "ELEMENT_SET_NO": 999,
    "REV_AT_EPOCH": 20304,
    "BSTAR": 0.00010814,
    "MEAN_MOTION_DOT": 1.434e-05,
    "MEAN_MOTION_DDOT": 0.0,
    "TLE_LINE1": "1 52125U 22029AP  25315.18637054  .00001434  00000+0  10814-3 0  9998",
    "TLE_LINE2": "2 52125  53.2168 241.1002 0001363  90.4278 269.6870 15.08840996203042",
    "COMMENT": "Grouped by shell and plane from TLE"
  },
  {
    "OBJECT_NAME": "STARLINK-3732",
    "OBJECT_ID": "22029AQ",
    "EPOCH": "2025-11-11T04:38:56.780736",
    "MEAN_MOTION": 15.08851866,
    "ECCENTRICITY": 0.0001363,
    "INCLINATION": 53.2169,
    "RA_OF_ASC_NODE": 241.0668,
    "ARG_OF_PERICENTER": 97.4945,
    "MEAN_ANOMALY": 262.6202,
    "EPHEMERIS_TYPE": 0,
    "CLASSIFICATION_TYPE": "U",
    "NORAD_CAT_ID": 52126,
    "ELEMENT_SET_NO": 999,
    "REV_AT_EPOCH": 20303,
    "BSTAR": 0.00020665,
    "MEAN_MOTION_DOT": 3.004e-05,
    "MEAN_MOTION_DDOT": 0.0,
    "TLE_LINE1": "1 52126U 22029AQ  25315.19371274  .00003004  00000+0  20665-3 0  9999",
    "TLE_LINE2": "2 52126  53.2169 241.0668 0001363  97.4945 262.6202 15.08851866203038",
    "COMMENT": "Grouped by shell and plane from TLE"
  },
  {
    "OBJECT_NAME": "STARLINK-3715",
    "OBJECT_ID": "22029AR",
    "EPOCH": "2025-11-11T04:23:02.897088",
    "MEAN_MOTION": 15.08852459,
    "ECCENTRICITY": 0.0001444,
    "INCLINATION": 53.2175,
    "RA_OF_ASC_NODE": 241.1148,
    "ARG_OF_PERICENTER": 92.0993,
    "MEAN_ANOMALY": 268.0165,
    "EPHEMERIS_TYPE": 0,
    "CLASSIFICATION_TYPE": "U",
    "NORAD_CAT_ID": 52127,
    "ELEMENT_SET_NO": 999,
    "REV_AT_EPOCH": 20303,
    "BSTAR": 0.00024543000000000004,
    "MEAN_MOTION_DOT": 3.622e-05,
    "MEAN_MOTION_DDOT": 0.0,
    "TLE_LINE1": "1 52127U 22029AR  25315.18267242  .00003622  00000+0  24543-3 0  9993",
    "TLE_LINE2": "2 52127  53.2175 241.1148 0001444  92.0993 268.0165 15.08852459203031",
    "COMMENT": "Grouped by shell and plane from TLE"
  },
  {
    "OBJECT_NAME": "STARLINK-3661",
    "OBJECT_ID": "22029AT",
    "EPOCH": "2025-11-11T05:47:50.360640",
    "MEAN_MOTION": 15.088517,
    "ECCENTRICITY": 0.0001597,
    "INCLINATION": 53.218,
    "RA_OF_ASC_NODE": 240.8534,
    "ARG_OF_PERICENTER": 95.6002,
    "MEAN_ANOMALY": 264.5173,
    "EPHEMERIS_TYPE": 0,
    "CLASSIFICATION_TYPE": "U",
    "NORAD_CAT_ID": 52129,
    "ELEMENT_SET_NO": 999,
    "REV_AT_EPOCH": 20305,
    "BSTAR": 0.000161,
    "MEAN_MOTION_DOT": 2.276e-05,
    "MEAN_MOTION_DDOT": 0.0,
    "TLE_LINE1": "1 52129U 22029AT  25315.24155510  .00002276  00000+0  16100-3 0  9990",
    "TLE_LINE2": "2 52129  53.2180 240.8534 0001597  95.6002 264.5173 15.08851700203053",
    "COMMENT": "Grouped by shell and plane from TLE"
  },
  {
    "OBJECT_NAME": "STARLINK-3711",
    "OBJECT_ID": "22029AV",
    "EPOCH": "2025-11-11T04:07:08.406048",
    "MEAN_MOTION": 15.0887955,
    "ECCENTRICITY": 0.0001515,
    "INCLINATION": 53.216,
    "RA_OF_ASC_NODE": 241.1659,
    "ARG_OF_PERICENTER": 92.1351,
    "MEAN_ANOMALY": 267.9815,
    "EPHEMERIS_TYPE": 0,
    "CLASSIFICATION_TYPE": "U",
    "NORAD_CAT_ID": 52131,
    "ELEMENT_SET_NO": 999,
    "REV_AT_EPOCH": 20304,
    "BSTAR": 0.00061703,
    "MEAN_MOTION_DOT": 9.556e-05,
    "MEAN_MOTION_DDOT": 0.0,
    "TLE_LINE1": "1 52131U 22029AV  25315.17162507  .00009556  00000+0  61703-3 0  9996",
    "TLE_LINE2": "2 52131  53.2160 241.1659 0001515  92.1351 267.9815 15.08879550203047",
    "COMMENT": "Grouped by shell and plane from TLE"
  },
  {
    "OBJECT_NAME": "STARLINK-3718",
    "OBJECT_ID": "22029AW",
    "EPOCH": "2025-11-11T04:17:45.109248",
    "MEAN_MOTION": 15.08844235,
    "ECCENTRICITY": 0.0001485,
    "INCLINATION": 53.2185,
    "RA_OF_ASC_NODE": 241.1337,
    "ARG_OF_PERICENTER": 82.3928,
    "MEAN_ANOMALY": 277.7233,
    "EPHEMERIS_TYPE": 0,
    "CLASSIFICATION_TYPE": "U",
    "NORAD_CAT_ID": 52132,
    "ELEMENT_SET_NO": 999,
    "REV_AT_EPOCH": 20304,
    "BSTAR": 0.00016521,
    "MEAN_MOTION_DOT": 2.343e-05,
    "MEAN_MOTION_DDOT": 0.0,
    "TLE_LINE1": "1 52132U 22029AW  25315.17899432  .00002343  00000+0  16521-3 0  9996",
    "TLE_LINE2": "2 52132  53.2185 241.1337 0001485  82.3928 277.7233 15.08844235203040",
    "COMMENT": "Grouped by shell and plane from TLE"
  },
  {
    "OBJECT_NAME": "STARLINK-3707",
    "OBJECT_ID": "22029AX",
    "EPOCH": "2025-11-11T05:31:56.914176",
    "MEAN_MOTION": 15.08840521,
    "ECCENTRICITY": 0.0001696,
    "INCLINATION": 53.2184,
    "RA_OF_ASC_NODE": 240.9026,
    "ARG_OF_PERICENTER": 87.5966,
    "MEAN_ANOMALY": 272.522,
    "EPHEMERIS_TYPE": 0,
    "CLASSIFICATION_TYPE": "U",
    "NORAD_CAT_ID": 52133,
    "ELEMENT_SET_NO": 999,
    "REV_AT_EPOCH": 20305,
    "BSTAR": 0.00010155,
    "MEAN_MOTION_DOT": 1.329e-05,
    "MEAN_MOTION_DDOT": 0.0,
    "TLE_LINE1": "1 52133U 22029AX  25315.23051984  .00001329  00000+0  10155-3 0  9996",
    "TLE_LINE2": "2 52133  53.2184 240.9026 0001696  87.5966 272.5220 15.08840521203059",
    "COMMENT": "Grouped by shell and plane from TLE"
  }
]